start=new Date('2021-10-25T00:00:00.000Z').valueOf();
sats=[{"EPOCH":"2021-10-24T20:48:38.848320","MEAN_MOTION":"15.06401047","REV_AT_EPOCH":"2366","BSTAR":"0.00004803400000","APOAPSIS":"548.392","LAUNCH_DATE":"2021-05-15","ARG_OF_PERICENTER":"86.8207","MEAN_MOTION_DOT":"0.00000434","GP_ID":"188107078","COUNTRY_CODE":"US","CLASSIFICATION_TYPE":"U","MEAN_ANOMALY":"273.2977","TIME_SYSTEM":"UTC","EPHEMERIS_TYPE":"0","CENTER_NAME":"EARTH","TLE_LINE2":"2 48558  53.0560 100.0363 0001706  86.8207 273.2977 15.06401047 23661","MEAN_ELEMENT_THEORY":"SGP4","OBJECT_ID":"2021-041F","FILE":"3182768","DECAY_DATE":null,"REF_FRAME":"TEME","MEAN_MOTION_DDOT":"0.0000000000000","SITE":"AFETR","ECCENTRICITY":"0.00017060","ELEMENT_SET_NO":"999","SEMIMAJOR_AXIS":"6925.345","RA_OF_ASC_NODE":"100.0363","OBJECT_TYPE":"PAYLOAD","RCS_SIZE":"LARGE","PERIAPSIS":"546.029","PERIOD":"95.592","NORAD_CAT_ID":"48558","OBJECT_NAME":"STARLINK-2166","INCLINATION":"53.0560","TLE_LINE1":"1 48558U 21041F   21297.86711630  .00000434  00000-0  48034-4 0  9995"},{"TIME_SYSTEM":"UTC","CLASSIFICATION_TYPE":"U","GP_ID":"188106854","COUNTRY_CODE":"US","MEAN_ANOMALY":"273.9229","MEAN_MOTION_DOT":"0.00000727","ARG_OF_PERICENTER":"86.1971","MEAN_ELEMENT_THEORY":"SGP4","OBJECT_ID":"2021-041G","TLE_LINE2":"2 48559  53.0519 100.1770 0001845  86.1971 273.9229 15.06407704 24512","CENTER_NAME":"EARTH","EPHEMERIS_TYPE":"0","APOAPSIS":"548.468","BSTAR":"0.00006770200000","LAUNCH_DATE":"2021-05-15","REV_AT_EPOCH":"2451","EPOCH":"2021-10-24T20:04:50.237184","MEAN_MOTION":"15.06407704","INCLINATION":"53.0519","OBJECT_NAME":"STARLINK-2167","TLE_LINE1":"1 48559U 21041G   21297.83669256  .00000727  00000-0  67702-4 0  9997","RCS_SIZE":"LARGE","NORAD_CAT_ID":"48559","PERIOD":"95.592","PERIAPSIS":"545.912","OBJECT_TYPE":"PAYLOAD","SITE":"AFETR","MEAN_MOTION_DDOT":"0.0000000000000","DECAY_DATE":null,"REF_FRAME":"TEME","FILE":"3182768","SEMIMAJOR_AXIS":"6925.325","RA_OF_ASC_NODE":"100.1770","ELEMENT_SET_NO":"999","ECCENTRICITY":"0.00018450"},{"EPOCH":"2021-10-24T18:30:39.735072","MEAN_MOTION":"15.06400610","REV_AT_EPOCH":"2541","BSTAR":"-0.00000973930000","APOAPSIS":"548.310","LAUNCH_DATE":"2021-05-15","ARG_OF_PERICENTER":"90.6308","MEAN_MOTION_DOT":"-0.00000427","GP_ID":"188106967","CLASSIFICATION_TYPE":"U","COUNTRY_CODE":"US","MEAN_ANOMALY":"269.4862","TIME_SYSTEM":"UTC","EPHEMERIS_TYPE":"0","CENTER_NAME":"EARTH","TLE_LINE2":"2 48560  53.0503 100.4702 0001586  90.6308 269.4862 15.06400610 25413","OBJECT_ID":"2021-041H","MEAN_ELEMENT_THEORY":"SGP4","FILE":"3182768","DECAY_DATE":null,"REF_FRAME":"TEME","MEAN_MOTION_DDOT":"0.0000000000000","SITE":"AFETR","ECCENTRICITY":"0.00015860","SEMIMAJOR_AXIS":"6925.347","ELEMENT_SET_NO":"999","RA_OF_ASC_NODE":"100.4702","OBJECT_TYPE":"PAYLOAD","RCS_SIZE":"LARGE","PERIAPSIS":"546.113","PERIOD":"95.592","NORAD_CAT_ID":"48560","OBJECT_NAME":"STARLINK-2173","INCLINATION":"53.0503","TLE_LINE1":"1 48560U 21041H   21297.77129323 -.00000427  00000-0 -97393-5 0  9997"},{"RCS_SIZE":"LARGE","PERIOD":"94.021","NORAD_CAT_ID":"48561","PERIAPSIS":"470.135","INCLINATION":"53.0577","OBJECT_NAME":"STARLINK-2186","TLE_LINE1":"1 48561U 21041J   21298.00001157 -.01063262  00000-0 -37479-1 0  9991","MEAN_MOTION_DDOT":"0.0000000000000","SITE":"AFETR","FILE":"3182768","REF_FRAME":"TEME","DECAY_DATE":null,"SEMIMAJOR_AXIS":"6849.236","ELEMENT_SET_NO":"999","RA_OF_ASC_NODE":"70.3556","ECCENTRICITY":"0.00014100","OBJECT_TYPE":"PAYLOAD","APOAPSIS":"472.066","BSTAR":"-0.03747900000000","LAUNCH_DATE":"2021-05-15","TIME_SYSTEM":"UTC","MEAN_MOTION_DOT":"-0.01063262","ARG_OF_PERICENTER":"53.0917","MEAN_ANOMALY":"37.5737","GP_ID":"188107411","COUNTRY_CODE":"US","CLASSIFICATION_TYPE":"U","TLE_LINE2":"2 48561  53.0577  70.3556 0001410  53.0917  37.5737 15.31579659  3624","MEAN_ELEMENT_THEORY":"SGP4","OBJECT_ID":"2021-041J","EPHEMERIS_TYPE":"0","CENTER_NAME":"EARTH","EPOCH":"2021-10-25T00:00:00.999648","MEAN_MOTION":"15.31579659","REV_AT_EPOCH":"362"},{"REV_AT_EPOCH":"2452","EPOCH":"2021-10-24T20:16:50.840832","MEAN_MOTION":"15.06390621","TIME_SYSTEM":"UTC","MEAN_MOTION_DOT":"0.00000652","ARG_OF_PERICENTER":"69.6386","GP_ID":"188106743","CLASSIFICATION_TYPE":"U","COUNTRY_CODE":"US","MEAN_ANOMALY":"290.4764","TLE_LINE2":"2 48562  53.0592 100.1330 0001506  69.6386 290.4764 15.06390621 24527","MEAN_ELEMENT_THEORY":"SGP4","OBJECT_ID":"2021-041K","EPHEMERIS_TYPE":"0","CENTER_NAME":"EARTH","APOAPSIS":"548.285","BSTAR":"0.00006268800000","LAUNCH_DATE":"2021-05-15","OBJECT_TYPE":"PAYLOAD","MEAN_MOTION_DDOT":"0.0000000000000","SITE":"AFETR","FILE":"3182768","REF_FRAME":"TEME","DECAY_DATE":null,"SEMIMAJOR_AXIS":"6925.377","ELEMENT_SET_NO":"999","RA_OF_ASC_NODE":"100.1330","ECCENTRICITY":"0.00015060","INCLINATION":"53.0592","OBJECT_NAME":"STARLINK-2187","TLE_LINE1":"1 48562U 21041K   21297.84503288  .00000652  00000-0  62688-4 0  9999","RCS_SIZE":"LARGE","PERIOD":"95.593","NORAD_CAT_ID":"48562","PERIAPSIS":"546.199"},{"OBJECT_TYPE":"PAYLOAD","SITE":"AFETR","MEAN_MOTION_DDOT":"0.0000000000000","REF_FRAME":"TEME","DECAY_DATE":null,"FILE":"3182768","ELEMENT_SET_NO":"999","SEMIMAJOR_AXIS":"6925.348","RA_OF_ASC_NODE":"100.0568","ECCENTRICITY":"0.00020490","INCLINATION":"53.0565","OBJECT_NAME":"STARLINK-2188","TLE_LINE1":"1 48563U 21041L   21297.86344565  .00000701  00000-0  65959-4 0  9992","RCS_SIZE":"LARGE","NORAD_CAT_ID":"48563","PERIOD":"95.592","PERIAPSIS":"545.794","REV_AT_EPOCH":"2452","EPOCH":"2021-10-24T20:43:21.704160","MEAN_MOTION":"15.06400088","TIME_SYSTEM":"UTC","COUNTRY_CODE":"US","GP_ID":"188107190","CLASSIFICATION_TYPE":"U","MEAN_ANOMALY":"278.6835","MEAN_MOTION_DOT":"0.00000701","ARG_OF_PERICENTER":"81.4386","MEAN_ELEMENT_THEORY":"SGP4","OBJECT_ID":"2021-041L","TLE_LINE2":"2 48563  53.0565 100.0568 0002049  81.4386 278.6835 15.06400088 24521","CENTER_NAME":"EARTH","EPHEMERIS_TYPE":"0","APOAPSIS":"548.632","BSTAR":"0.00006595900000","LAUNCH_DATE":"2021-05-15"},{"RCS_SIZE":"LARGE","PERIAPSIS":"546.272","NORAD_CAT_ID":"48564","PERIOD":"95.593","OBJECT_NAME":"STARLINK-2190","INCLINATION":"53.0558","TLE_LINE1":"1 48564U 21041M   21297.85608476  .00000714  00000-0  66860-4 0  9992","DECAY_DATE":null,"REF_FRAME":"TEME","FILE":"3182768","SITE":"AFETR","MEAN_MOTION_DDOT":"0.0000000000000","ECCENTRICITY":"0.00014110","SEMIMAJOR_AXIS":"6925.384","RA_OF_ASC_NODE":"100.0829","ELEMENT_SET_NO":"999","OBJECT_TYPE":"PAYLOAD","BSTAR":"0.00006686000000","APOAPSIS":"548.226","LAUNCH_DATE":"2021-05-15","CLASSIFICATION_TYPE":"U","GP_ID":"188106632","COUNTRY_CODE":"US","MEAN_ANOMALY":"271.3030","MEAN_MOTION_DOT":"0.00000714","ARG_OF_PERICENTER":"88.8121","TIME_SYSTEM":"UTC","CENTER_NAME":"EARTH","EPHEMERIS_TYPE":"0","MEAN_ELEMENT_THEORY":"SGP4","OBJECT_ID":"2021-041M","TLE_LINE2":"2 48564  53.0558 100.0829 0001411  88.8121 271.3030 15.06388541 24520","EPOCH":"2021-10-24T20:32:45.723264","MEAN_MOTION":"15.06388541","REV_AT_EPOCH":"2452"},{"REV_AT_EPOCH":"2452","MEAN_MOTION":"15.06392963","EPOCH":"2021-10-24T20:27:25.997472","CENTER_NAME":"EARTH","EPHEMERIS_TYPE":"0","MEAN_ELEMENT_THEORY":"SGP4","OBJECT_ID":"2021-041N","TLE_LINE2":"2 48565  53.0574 100.1019 0001573  91.0453 269.0716 15.06392963 24522","COUNTRY_CODE":"US","GP_ID":"188107302","MEAN_ANOMALY":"269.0716","CLASSIFICATION_TYPE":"U","MEAN_MOTION_DOT":"-0.00001001","ARG_OF_PERICENTER":"91.0453","TIME_SYSTEM":"UTC","LAUNCH_DATE":"2021-05-15","BSTAR":"-0.00004831400000","APOAPSIS":"548.324","OBJECT_TYPE":"PAYLOAD","ECCENTRICITY":"0.00015730","SEMIMAJOR_AXIS":"6925.370","RA_OF_ASC_NODE":"100.1019","ELEMENT_SET_NO":"999","REF_FRAME":"TEME","DECAY_DATE":null,"FILE":"3182768","SITE":"AFETR","MEAN_MOTION_DDOT":"0.0000000000000","TLE_LINE1":"1 48565U 21041N   21297.85238423 -.00001001  00000-0 -48314-4 0  9990","OBJECT_NAME":"STARLINK-2191","INCLINATION":"53.0574","PERIAPSIS":"546.146","NORAD_CAT_ID":"48565","PERIOD":"95.593","RCS_SIZE":"LARGE"},{"MEAN_MOTION":"15.06398435","EPOCH":"2021-10-24T21:01:54.318432","REV_AT_EPOCH":"2438","LAUNCH_DATE":"2021-05-15","BSTAR":"0.00005920600000","APOAPSIS":"548.371","EPHEMERIS_TYPE":"0","CENTER_NAME":"EARTH","TLE_LINE2":"2 48566  53.0550 109.9887 0001664  87.9431 272.1749 15.06398435 24383","OBJECT_ID":"2021-041P","MEAN_ELEMENT_THEORY":"SGP4","MEAN_MOTION_DOT":"0.00000600","ARG_OF_PERICENTER":"87.9431","GP_ID":"188107079","CLASSIFICATION_TYPE":"U","COUNTRY_CODE":"US","MEAN_ANOMALY":"272.1749","TIME_SYSTEM":"UTC","ECCENTRICITY":"0.00016640","SEMIMAJOR_AXIS":"6925.353","RA_OF_ASC_NODE":"109.9887","ELEMENT_SET_NO":"999","FILE":"3182768","REF_FRAME":"TEME","DECAY_DATE":null,"MEAN_MOTION_DDOT":"0.0000000000000","SITE":"AFETR","OBJECT_TYPE":"PAYLOAD","PERIAPSIS":"546.066","PERIOD":"95.592","NORAD_CAT_ID":"48566","RCS_SIZE":"LARGE","TLE_LINE1":"1 48566U 21041P   21297.87632313  .00000600  00000-0  59206-4 0  9993","OBJECT_NAME":"STARLINK-2214","INCLINATION":"53.0550"},{"OBJECT_ID":"2021-041Q","MEAN_ELEMENT_THEORY":"SGP4","TLE_LINE2":"2 48567  53.0542 110.5243 0001617  84.4107 275.7066 15.06384571 24364","CENTER_NAME":"EARTH","EPHEMERIS_TYPE":"0","TIME_SYSTEM":"UTC","GP_ID":"188106855","CLASSIFICATION_TYPE":"U","COUNTRY_CODE":"US","MEAN_ANOMALY":"275.7066","ARG_OF_PERICENTER":"84.4107","MEAN_MOTION_DOT":"0.00000522","LAUNCH_DATE":"2021-05-15","APOAPSIS":"548.381","BSTAR":"0.00005396000000","REV_AT_EPOCH":"2436","MEAN_MOTION":"15.06384571","EPOCH":"2021-10-24T18:08:08.083968","TLE_LINE1":"1 48567U 21041Q   21297.75564912  .00000522  00000-0  53960-4 0  9994","INCLINATION":"53.0542","OBJECT_NAME":"STARLINK-2215","NORAD_CAT_ID":"48567","PERIOD":"95.593","PERIAPSIS":"546.141","RCS_SIZE":"LARGE","OBJECT_TYPE":"PAYLOAD","SEMIMAJOR_AXIS":"6925.396","ELEMENT_SET_NO":"999","RA_OF_ASC_NODE":"110.5243","ECCENTRICITY":"0.00016170","SITE":"AFETR","MEAN_MOTION_DDOT":"0.0000000000000","REF_FRAME":"TEME","DECAY_DATE":null,"FILE":"3182768"}];
